[{"OBJECT_NAME":"STARLINK-31220","OBJECT_ID":"2024-038S","EPOCH":"2026-03-09T22:03:24.958368","MEAN_MOTION":15.27583421,"ECCENTRICITY":2.166e-5,"INCLINATION":42.998,"RA_OF_ASC_NODE":25.684,"ARG_OF_PERICENTER":175.7406,"MEAN_ANOMALY":184.3447,"EPHEMERIS_TYPE":0,"CLASSIFICATION_TYPE":"U","NORAD_CAT_ID":59039,"ELEMENT_SET_NO":999,"REV_AT_EPOCH":11479,"BSTAR":0.00018130086,"MEAN_MOTION_DOT":4.731e-5,"MEAN_MOTION_DDOT":0},{"OBJECT_NAME":"FLOCK 4G-3","OBJECT_ID":"2025-009AG","EPOCH":"2026-03-09T19:14:30.392160","MEAN_MOTION":15.2717931,"ECCENTRICITY":0.00013196,"INCLINATION":97.4062,"RA_OF_ASC_NODE":151.4068,"ARG_OF_PERICENTER":293.2042,"MEAN_ANOMALY":66.9058,"EPHEMERIS_TYPE":0,"CLASSIFICATION_TYPE":"U","NORAD_CAT_ID":62639,"ELEMENT_SET_NO":999,"REV_AT_EPOCH":6372,"BSTAR":0.0004338875,"MEAN_MOTION_DOT":0.00011494,"MEAN_MOTION_DDOT":0}]
